FLOCK 2E'-3             
1 41480U 98067JA  17345.80605458  .00036441  00000-0  18954-3 0  9991
2 41480  51.6258 184.2590 0002696 166.9365 193.1707 15.80581903 89829
